$$SOE
2460728.500000000, A.D. 2025-Feb-22 00:00:00.0000, 1.513695205970721E+08, 2.383443567670074E+08, -1.174622496460280E+08,
2460735.500000000, A.D. 2025-Mar-01 00:00:00.0000, 1.413948019941637E+08, 2.450675695888207E+08, -1.165658666648828E+08,
2460742.500000000, A.D. 2025-Mar-08 00:00:00.0000, 1.311805440544613E+08, 2.513757140730414E+08, -1.154719856193171E+08,
2460749.500000000, A.D. 2025-Mar-15 00:00:00.0000, 1.207443884210218E+08, 2.572587467644964E+08, -1.141827522903816E+08,
2460756.500000000, A.D. 2025-Mar-22 00:00:00.0000, 1.101042113105110E+08, 2.627071902893299E+08, -1.127005541263621E+08,
2460763.500000000, A.D. 2025-Mar-29 00:00:00.0000, 9.927811401356536E+07, 2.677121326874408E+08, -1.110280181325213E+08,
2460770.500000000, A.D. 2025-Apr-05 00:00:00.0000, 8.828441562286237E+07, 2.722652284432053E+08, -1.091680092522030E+08,
2460777.500000000, A.D. 2025-Apr-12 00:00:00.0000, 7.714164596190941E+07, 2.763587013642643E+08, -1.071236290359190E+08,
2460784.500000000, A.D. 2025-Apr-19 00:00:00.0000, 6.586853842281097E+07, 2.799853484728882E+08, -1.048982146353456E+08,
2460791.500000000, A.D. 2025-Apr-26 00:00:00.0000, 5.448402288033722E+07, 2.831385447499669E+08, -1.024953381459390E+08,
2460798.500000000, A.D. 2025-May-03 00:00:00.0000, 4.300721869060358E+07, 2.858122487895102E+08, -9.991880628751338E+07,
2460805.500000000, A.D. 2025-May-10 00:00:00.0000, 3.145742769567585E+07, 2.880010094066002E+08, -9.717266040307513E+07,
2460812.500000000, A.D. 2025-May-17 00:00:00.0000, 1.985412716115196E+07, 2.896999731876048E+08, -9.426117675879885E+07,
2460819.500000000, A.D. 2025-May-24 00:00:00.0000, 8.216962707914241E+06, 2.909048929535699E+08, -9.118886713944407E+07,
2460826.500000000, A.D. 2025-May-31 00:00:00.0000, -3.434258460885510E+06, 2.916121374696648E+08, -8.796047972437738E+07,
2460833.500000000, A.D. 2025-Jun-07 00:00:00.0000, -1.507957455751191E+07, 2.918187036261287E+08, -8.458100008146855E+07,
2460840.500000000, A.D. 2025-Jun-14 00:00:00.0000, -2.669887891168347E+07, 2.915222304354521E+08, -8.105565208430912E+07,
2460847.500000000, A.D. 2025-Jun-21 00:00:00.0000, -3.827193128570674E+07, 2.907210115671154E+08, -7.738989908696528E+07,
2460854.500000000, A.D. 2025-Jun-28 00:00:00.0000, -4.977836781644214E+07, 2.894140081857328E+08, -7.358944546091609E+07,
2460861.500000000, A.D. 2025-Jul-05 00:00:00.0000, -6.119771123295365E+07, 2.876008642509830E+08, -6.966023814349873E+07,
2460868.500000000, A.D. 2025-Jul-12 00:00:00.0000, -7.250938267510970E+07, 2.852819234556241E+08, -6.560846810687838E+07,
2460875.500000000, A.D. 2025-Jul-19 00:00:00.0000, -8.369271506804484E+07, 2.824582471981469E+08, -6.144057175963235E+07,
2460882.500000000, A.D. 2025-Jul-26 00:00:00.0000, -9.472696799240419E+07, 2.791316334975548E+08, -5.716323224991970E+07,
2460889.500000000, A.D. 2025-Aug-02 00:00:00.0000, -1.055913441389619E+08, 2.753046368254558E+08, -5.278338061531439E+07,
2460896.500000000, A.D. 2025-Aug-09 00:00:00.0000, -1.162650074823895E+08, 2.709805887818674E+08, -4.830819671842616E+07,
2460903.500000000, A.D. 2025-Aug-16 00:00:00.0000, -1.267271032595105E+08, 2.661636194783824E+08, -4.374510991084517E+07,
2460910.500000000, A.D. 2025-Aug-23 00:00:00.0000, -1.369567796256228E+08, 2.608586795561140E+08, -3.910179937544979E+07,
2460917.500000000, A.D. 2025-Aug-30 00:00:00.0000, -1.469332108310613E+08, 2.550715634463833E+08, -3.438619403784922E+07,
2460924.500000000, A.D. 2025-Sep-06 00:00:00.0000, -1.566356235135721E+08, 2.488089347550293E+08, -2.960647175000305E+07,
2460931.500000000, A.D. 2025-Sep-13 00:00:00.0000, -1.660433279499585E+08, 2.420783511556596E+08, -2.477105770483927E+07,
2460938.500000000, A.D. 2025-Sep-20 00:00:00.0000, -1.751357511530649E+08, 2.348882869790819E+08, -1.988862241202685E+07,
2460945.500000000, A.D. 2025-Sep-27 00:00:00.0000, -1.838924709258271E+08, 2.272481564158322E+08, -1.496807896757029E+07,
2460952.500000000, A.D. 2025-Oct-04 00:00:00.0000, -1.922932530477420E+08, 2.191683376703661E+08, -1.001857927537985E+07,
2460959.500000000, A.D. 2025-Oct-11 00:00:00.0000, -2.003180920949737E+08, 2.106601968766873E+08, -5.049509138464376E+06,
2460966.500000000, A.D. 2025-Oct-18 00:00:00.0000, -2.079472557341039E+08, 2.017361111989004E+08, -7.048213844440877E+04,
2460973.500000000, A.D. 2025-Oct-25 00:00:00.0000, -2.151613324847501E+08, 1.924094907971523E+08, 4.908667810965180E+06,
2460980.500000000, A.D. 2025-Nov-01 00:00:00.0000, -2.219412830440389E+08, 1.826947993371897E+08, 9.877895359633103E+06,
2460987.500000000, A.D. 2025-Nov-08 00:00:00.0000, -2.282684952403688E+08, 1.726075726633020E+08, 1.482695419184866E+07,
2460994.500000000, A.D. 2025-Nov-15 00:00:00.0000, -2.341248425244213E+08, 1.621644351936746E+08, 1.974540919345905E+07,
2461001.500000000, A.D. 2025-Nov-22 00:00:00.0000, -2.394927456057236E+08, 1.513831138293196E+08, 2.462265043884904E+07,
2461008.500000000, A.D. 2025-Nov-29 00:00:00.0000, -2.443552373589736E+08, 1.402824500382008E+08, 2.944790924458712E+07,
2461015.500000000, A.D. 2025-Dec-06 00:00:00.0000, -2.486960332121811E+08, 1.288824094711652E+08, 3.421027662219715E+07,
2461022.500000000, A.D. 2025-Dec-13 00:00:00.0000, -2.524996064716923E+08, 1.172040852129883E+08, 3.889872394366111E+07,
2461029.500000000, A.D. 2025-Dec-20 00:00:00.0000, -2.557512649002654E+08, 1.052696951395094E+08, 4.350212570101595E+07,
2461036.500000000, A.D. 2025-Dec-27 00:00:00.0000, -2.584372293636478E+08, 9.310257537963869E+07, 4.800928477114718E+07,
2461043.500000000, A.D. 2026-Jan-03 00:00:00.0000, -2.605447157014880E+08, 8.072716866833945E+07, 5.240896035533597E+07,
2461050.500000000, A.D. 2026-Jan-10 00:00:00.0000, -2.620620193267438E+08, 6.816900632119466E+07, 5.668989859601752E+07,
2461057.500000000, A.D. 2026-Jan-17 00:00:00.0000, -2.629786018390504E+08, 5.545468314526155E+07, 6.084086588339946E+07,
2461064.500000000, A.D. 2026-Jan-24 00:00:00.0000, -2.632851790036590E+08, 4.261182472272420E+07, 6.485068485731177E+07,
2461071.500000000, A.D. 2026-Jan-31 00:00:00.0000, -2.629738094121602E+08, 2.966904649797642E+07, 6.870827307776131E+07,
2461078.500000000, A.D. 2026-Feb-07 00:00:00.0000, -2.620379830099970E+08, 1.665590408733788E+07, 7.240268429118517E+07,
2461085.500000000, A.D. 2026-Feb-14 00:00:00.0000, -2.604727083902181E+08, 3.602834325993817E+06, 7.592315216169064E+07,
2461092.500000000, A.D. 2026-Feb-21 00:00:00.0000, -2.582745975257362E+08, -9.458912771545671E+06, 7.925913632439640E+07,
2461099.500000000, A.D. 2026-Feb-28 00:00:00.0000, -2.554419479969198E+08, -2.249735029948778E+07, 8.240037074763517E+07,
2461106.500000000, A.D. 2026-Mar-07 00:00:00.0000, -2.519748236709345E+08, -3.547984116173908E+07, 8.533691417339431E+07,
2461113.500000000, A.D. 2026-Mar-14 00:00:00.0000, -2.478751298962461E+08, -4.837319760833669E+07, 8.805920187955332E+07,
2461120.500000000, A.D. 2026-Mar-21 00:00:00.0000, -2.431466802084748E+08, -6.114379064792922E+07, 9.055809846622065E+07,
2461127.500000000, A.D. 2026-Mar-28 00:00:00.0000, -2.377952552854216E+08, -7.375766809015444E+07, 9.282495149284747E+07,
2461134.500000000, A.D. 2026-Apr-04 00:00:00.0000, -2.318286534757753E+08, -8.618068181061053E+07, 9.485164544184655E+07,
2461141.500000000, A.D. 2026-Apr-11 00:00:00.0000, -2.252567313749659E+08, -9.837862404612838E+07, 9.663065540946452E+07,
2461148.500000000, A.D. 2026-Apr-18 00:00:00.0000, -2.180914330747473E+08, -1.103173719785985E+08, 9.815509991813138E+07,
2461155.500000000, A.D. 2026-Apr-25 00:00:00.0000, -2.103468068888314E+08, -1.219630396521333E+08, 9.941879221425581E+07,
2461162.500000000, A.D. 2026-May-02 00:00:00.0000, -2.020390084700808E+08, -1.332821361245952E+08, 1.004162893852264E+08,
2461169.500000000, A.D. 2026-May-09 00:00:00.0000, -1.931862892731776E+08, -1.442417286059512E+08, 1.011429386041694E+08,
2461176.500000000, A.D. 2026-May-16 00:00:00.0000, -1.838089692271997E+08, -1.548096089547571E+08, 1.015949198031466E+08,
2461183.500000000, A.D. 2026-May-23 00:00:00.0000, -1.739293930015984E+08, -1.649544608596439E+08, 1.017692841876406E+08,
2461190.500000000, A.D. 2026-May-30 00:00:00.0000, -1.635718715978869E+08, -1.746460256003586E+08, 1.016639881655066E+08,
2461197.500000000, A.D. 2026-Jun-06 00:00:00.0000, -1.527626094814742E+08, -1.838552677770083E+08, 1.012779218490548E+08,
2461204.500000000, A.D. 2026-Jun-13 00:00:00.0000, -1.415296137503951E+08, -1.925545388609606E+08, 1.006109312686327E+08,
2461211.500000000, A.D. 2026-Jun-20 00:00:00.0000, -1.299025862787626E+08, -2.007177336635969E+08, 9.966383411344562E+07,
2461218.500000000, A.D. 2026-Jun-27 00:00:00.0000, -1.179128012445417E+08, -2.083204380976907E+08, 9.843842874060784E+07,
2461225.500000000, A.D. 2026-Jul-04 00:00:00.0000, -1.055929690235415E+08, -2.153400671029526E+08, 9.693749609763779E+07,
2461232.500000000, A.D. 2026-Jul-11 00:00:00.0000, -9.297708743558334E+07, -2.217559910756935E+08, 9.516479434238423E+07,
2461239.500000000, A.D. 2026-Jul-18 00:00:00.0000, -8.010028173204172E+07, -2.275496491410539E+08, 9.312504609481648E+07,
2461246.500000000, A.D. 2026-Jul-25 00:00:00.0000, -6.699863500240471E+07, -2.327046478192173E+08, 9.082391838359004E+07,
2461253.500000000, A.D. 2026-Aug-01 00:00:00.0000, -5.370901083682169E+07, -2.372068439069591E+08, 8.826799545695975E+07,
2461260.500000000, A.D. 2026-Aug-08 00:00:00.0000, -4.026887004620592E+07, -2.410444106326969E+08, 8.546474471727178E+07,
2461267.500000000, A.D. 2026-Aug-15 00:00:00.0000, -2.671608311734153E+07, -2.442078859346501E+08, 8.242247616547367E+07,
2461274.500000000, A.D. 2026-Aug-22 00:00:00.0000, -1.308874128663640E+07, -2.466902012400569E+08, 7.915029602626182E+07,
2461281.500000000, A.D. 2026-Aug-29 00:00:00.0000, 5.750293595272063E+05, -2.484866920237173E+08, 7.565805526206216E+07,
2461288.500000000, A.D. 2026-Sep-05 00:00:00.0000, 1.423725081061095E+07, -2.495950932211978E+08, 7.195629324414565E+07,
2461295.500000000, A.D. 2026-Sep-12 00:00:00.0000, 2.786027353811739E+07, -2.500155174944264E+08, 6.805617731548426E+07,
$$EOE